# From MPC 84931
P/2012 F2 (PANSTARRS),e,14.6973,226.9670,33.2954,6.338709,0.0617594,0.54056681,231.4785,07/10.0/2023,2000,g 12.0,4.0
# From MPEC 2022-ED3
P/2012 G1 (PANSTARRS),e,12.1697,283.2635,266.1120,4.164958,0.1159546,0.32908974,117.4971,07/10.0/2023,2000,g 15.0,4.0
# From MPC 80898
P/2012 K3 (Gibbs),e,13.1861,125.8205,172.2329,3.629250,0.1425538,0.42222983,202.9378,07/10.0/2023,2000,g 15.0,4.0
# From MPC 88326
P/2012 NJ (La Sagra),e,84.5131,315.6195,338.3880,8.466631,0.0400072,0.84665795,161.6891,07/10.0/2023,2000,g 14.5,4.0
# From MPC 81470
P/2012 O1 (McNaught),e,7.4263,91.9133,238.3480,3.541998,0.1478535,0.59407841,235.0962,07/10.0/2023,2000,g 17.5,4.0
# From MPC 80899
P/2012 O2 (McNaught),e,24.4614,120.6797,183.4752,3.626870,0.1426941,0.53173929,217.8370,07/10.0/2023,2000,g 17.0,4.0
# From MPC 82320
P/2012 T2 (PANSTARRS),e,12.5696,73.7183,310.9042,5.725698,0.0719385,0.16247712,267.4292,07/10.0/2023,2000,g 10.0,4.0
# From MPC 80900
P/2012 T3 (PANSTARRS),e,9.5550,114.3520,195.5481,6.151944,0.0645930,0.61639207,263.6845,07/10.0/2023,2000,g 15.0,4.0
# From MPC 82720
P/2012 U2 (PANSTARRS),e,10.7593,185.3227,228.2880,7.130002,0.0517690,0.50030652,201.1580,07/10.0/2023,2000,g 12.5,4.0
# From MPC 84024
P/2012 US27 (Siding Spring),e,39.3706,49.2102,0.8464,5.163600,0.0839992,0.64835846,320.5869,07/10.0/2023,2000,g 13.5,4.0
# From MPC 82721
P/2012 WA34 (Lemmon-PANSTARRS),e,6.0827,93.5529,356.6505,4.677743,0.0974203,0.34343810,0.1078,07/10.0/2023,2000,g 13.5,4.0
# From MPC 82721
P/2013 AL76 (Catalina),e,144.8846,146.0327,27.0401,6.501149,0.0594592,0.68570005,230.3779,07/10.0/2023,2000,g 16.0,4.0
# From MPC 91612
P/2013 G1 (Kowalski),e,5.4570,221.2963,51.5425,6.899773,0.0543816,0.51071649,190.4744,07/10.0/2023,2000,g 11.0,4.0
# From MPC 84025
P/2013 G4 (PANSTARRS),e,5.9162,339.6275,214.6016,4.436940,0.1054578,0.40908415,40.6895,07/10.0/2023,2000,g 15.0,4.0
# From MPC 91613
P/2013 J2 (McNaught),e,15.5039,289.3147,37.9038,6.223828,0.0634772,0.65704333,228.4895,07/10.0/2023,2000,g 13.0,4.0
# From MPC 86229
P/2013 N3 (PANSTARRS),e,2.1730,17.4885,323.9806,7.397273,0.0489888,0.59266673,167.9694,07/10.0/2023,2000,g 13.0,4.0
# From MPC 85834
P/2013 N5 (PANSTARRS),e,23.4591,187.1550,176.9589,6.797058,0.0556189,0.73242274,203.1677,07/10.0/2023,2000,g 17.0,4.0
# From MPC 85834
P/2013 P1 (PANSTARRS),e,18.7188,160.6171,138.2506,8.585261,0.0391808,0.60402915,148.3359,07/10.0/2023,2000,g 12.0,4.0
# From MPEC 2022-V95
P/2013 R3 (Catalina-PANSTARRS),e,0.8651,341.9640,11.3394,3.031396,0.1867412,0.27560388,312.4801,07/10.0/2023,2000,g 14.0,4.0
# From unp
P/2013 R3-A (Catalina-PANSTARRS),e,0.8642,341.9189,11.4183,3.031150,0.1867639,0.27553464,312.5440,07/10.0/2023,2000,g  9.0,4.0
# From MPEC 2015-M77
P/2013 R3-B (Catalina-PANSTARRS),e,0.8654,341.9748,11.3531,3.031370,0.1867436,0.27557991,312.4751,07/10.0/2023,2000,g  9.0,4.0
# From MPC 85835
P/2013 T1 (PANSTARRS),e,24.3006,10.0795,346.1861,5.855997,0.0695509,0.62421181,251.8621,07/10.0/2023,2000,g 16.5,4.0
# From MPC 86643
P/2013 T2 (Schwartz),e,9.4558,0.8032,345.5934,3.492265,0.1510231,0.50088000,198.9004,07/10.0/2023,2000,g 16.0,4.0
# From MPC 91613
P/2013 W1 (PANSTARRS),e,4.6976,117.8376,1.2184,3.486922,0.1513703,0.59309354,156.3176,07/10.0/2023,2000,g 17.5,4.0
# From MPC101095
P/2013 YG46 (Spacewatch),e,7.8578,48.8333,242.6331,3.275402,0.1662674,0.45486214,30.6996,07/10.0/2023,2000,g 10.0,4.0
# From MPC 89728
P/2014 A2 (Hill),e,24.5527,106.6367,356.1457,5.926597,0.0683118,0.64594480,243.1869,07/10.0/2023,2000,g 15.0,4.0
# From MPC 92981
P/2014 A3 (PANSTARRS),e,13.7176,229.9788,214.1808,4.606829,0.0996784,0.24638340,7.8106,07/10.0/2023,2000,g 12.0,4.0
# From MPC102095
P/2014 C1 (TOTAS),e,2.6932,167.8161,24.0304,3.029937,0.1868761,0.45176615,288.4512,07/10.0/2023,2000,g 15.5,4.0
# From MPEC 2022-WD2
C/2014 F3 (Sheppard-Trujillo),e,6.5273,326.1802,4.7750,14.49343,0.0178627,0.60574080,13.7895,07/10.0/2023,2000,g  6.0,4.0
# From MPC 98560
P/2014 L2 (NEOWISE),e,5.1970,149.3437,182.7300,6.306363,0.0622351,0.64758393,203.8260,07/10.0/2023,2000,g 12.0,4.0
# From MPC 90769
P/2014 L3 (Hill),e,6.2629,115.5018,178.7096,8.180067,0.0421278,0.77226599,138.9365,07/10.0/2023,2000,g 16.0,4.0
# From MPC 91614
P/2014 M4 (PANSTARRS),e,3.3454,263.1694,148.0780,5.867001,0.0693553,0.59587875,215.8916,07/10.0/2023,2000,g 15.0,4.0
# From MPEC 2022-K19
P/2014 MG4 (Spacewatch-PANSTARRS),e,9.3653,311.7173,299.0024,5.013889,0.0877894,0.25881944,322.6626,07/10.0/2023,2000,g  9.5,4.0
# From MPC 98560
P/2014 O3 (PANSTARRS),e,7.7933,87.6357,204.7965,7.579656,0.0472313,0.38385550,159.2730,07/10.0/2023,2000,g 10.5,4.0
# From MPEC 2023-J29
C/2014 OG392 (PANSTARRS),e,9.0329,145.8104,254.5611,12.25753,0.0229668,0.18646779,13.1656,07/10.0/2023,2000,g  6.0,4.0
# From MPEC 2023-N01
P/2014 OL465 (PANSTARRS),e,21.6637,309.5899,267.6931,4.688369,0.0970893,0.28066791,12.8031,07/10.0/2023,2000,g 10.5,4.0
# From MPC 91616
P/2014 U4 (PANSTARRS),e,6.4287,11.8885,347.8616,3.509669,0.1499011,0.46468683,131.3685,07/10.0/2023,2000,g 18.0,4.0
# From MPEC 2023-J29
C/2014 UN271 (Bernardinelli-Bernstein),h,01/20.4470/2031,95.4312,189.9010,326.1915,1.001891,10.950550,2000,2.5,3.2
# From MPC 95211
P/2014 V1 (PANSTARRS),e,22.5203,166.1955,177.6726,5.479445,0.0768421,0.53426124,237.0354,07/10.0/2023,2000,g 14.0,4.0
# From MPC 93586
P/2014 W1 (PANSTARRS),e,8.8362,246.2057,152.0816,4.471680,0.1042313,0.38990441,343.1264,07/10.0/2023,2000,g 15.5,4.0
# From MPC105542
P/2014 W4 (PANSTARRS),e,15.2836,33.3905,67.5785,6.586056,0.0583131,0.35383489,160.1829,07/10.0/2023,2000,g 11.0,4.0
# From MPC 94281
P/2014 X1 (Elenin),e,26.0558,61.5780,33.8601,6.203444,0.0637903,0.70995598,198.4432,07/10.0/2023,2000,g 15.0,4.0
# From MPC 92275
P/2015 A3 (PANSTARRS),e,172.5444,277.3717,249.5218,7.816756,0.0450987,0.85028516,138.1804,07/10.0/2023,2000,g 20.0,4.0
# From MPC 99270
P/2015 B1 (PANSTARRS),e,18.0609,352.9010,188.8336,9.487073,0.0337292,0.36630586,96.5401,07/10.0/2023,2000,g  8.5,4.0
# From MPC109141
P/2015 B4 (Lemmon-PANSTARRS),e,1.7647,266.0831,227.1939,8.513182,0.0396795,0.56099274,122.1691,07/10.0/2023,2000,g 11.0,4.0
# From MPC101096
P/2015 C1 (TOTAS-Gibbs),e,13.9298,348.7879,178.0583,6.571099,0.0585123,0.56171480,175.5675,07/10.0/2023,2000,g 12.5,4.0
# From MPC109141
P/2015 D5 (Kowalski),e,20.5421,74.0787,39.6232,8.950415,0.0368078,0.49043883,124.6097,07/10.0/2023,2000,g  9.0,4.0
# From MPC 96866
P/2015 D6 (Lemmon-PANSTARRS),e,20.2119,45.8090,124.9765,7.133005,0.0517363,0.36162752,151.9364,07/10.0/2023,2000,g 10.5,4.0
# From MPEC 2021-P47
P/2015 HG16 (PANSTARRS),e,18.9519,57.1342,47.0606,4.800251,0.0937148,0.35139123,316.4336,07/10.0/2023,2000,g 12.5,4.0
# From MPC 95213
P/2015 K5 (PANSTARRS),e,39.9405,134.2385,106.2765,6.727080,0.0564890,0.55162918,167.3939,07/10.0/2023,2000,g 13.5,4.0
# From MPC107684
P/2015 M2 (PANSTARRS),e,3.9687,86.5800,226.0562,7.246785,0.0505226,0.17924211,144.3803,07/10.0/2023,2000,g  8.5,4.0
# From MPC 99819
P/2015 P4 (PANSTARRS),e,8.7184,104.6509,280.7213,6.046670,0.0662872,0.58577255,180.5165,07/10.0/2023,2000,g 14.0,4.0
# From MPEC 2022-K19
P/2015 PD229 (Cameron-ISON),e,2.0240,342.6737,352.7336,7.196267,0.0510556,0.32707535,147.2316,07/10.0/2023,2000,g 11.5,2.0
# From MPC 96867
P/2015 Q2 (Pimentel),e,146.5565,228.5522,244.6687,7.353237,0.0494295,0.75088474,141.4361,07/10.0/2023,2000,g 15.5,4.0
# From MPC 98562
P/2015 R1 (PANSTARRS),e,22.7018,48.3135,300.6069,5.881141,0.0691054,0.63405965,202.5176,07/10.0/2023,2000,g 14.0,4.0
# From MPC 95734
P/2015 R2 (PANSTARRS),e,15.4835,168.5928,149.8698,4.484608,0.1037809,0.45261511,305.5573,07/10.0/2023,2000,g 14.5,4.0
# From MPEC 2023-N18
P/2015 T3 (PANSTARRS),e,12.2359,119.8674,196.7076,4.041220,0.1213208,0.46683861,8.1668,07/10.0/2023,2000,g 14.0,4.0
# From MPC102953
P/2015 TO19 (Lemmon-PANSTARRS),e,6.5020,321.6173,89.2359,4.550702,0.1015282,0.35955870,271.9665,07/10.0/2023,2000,g 14.0,4.0
# From MPC110080
P/2015 TP200 (LINEAR),e,8.7796,7.0084,82.4405,7.263316,0.0503503,0.53662035,123.0607,07/10.0/2023,2000,g 11.0,4.0
# From MPC101098
P/2015 W2 (Catalina),e,11.6124,294.1050,117.6105,7.290721,0.0500666,0.63547948,141.9097,07/10.0/2023,2000,g 13.0,4.0
# From MPEC 2022-OB6
C/2015 XY1 (Lemmon),e,148.8522,281.5537,196.1409,10299,0.0000009,0.99923019,0.0000,04/25.1790/2018,2000,g  5.5,4.0
# From MPEC 2023-J29
P/2015 X3 (PANSTARRS),e,24.4146,77.2593,306.8648,5.002762,0.0880824,0.44009976,254.2175,07/10.0/2023,2000,g 15.0,4.0
# From MPC115881
P/2015 X6 (PANSTARRS),e,4.5654,106.9303,329.7956,2.751858,0.2159062,0.17336615,214.9419,07/10.0/2023,2000,g 16.0,4.0
# From MPC100282
P/2016 A2 (Christensen),e,26.4040,291.6181,141.2865,4.753614,0.0950973,0.27107755,280.4992,07/10.0/2023,2000,g 11.5,4.0
# From MPEC 2022-OB6
P/2016 A3 (PANSTARRS),e,8.5121,187.2062,340.8751,7.876787,0.0445841,0.38608855,101.0557,07/10.0/2023,2000,g 10.0,4.0
# From MPC102098
P/2016 A7 (PANSTARRS),e,16.6064,221.4991,352.4855,5.035602,0.0872222,0.56479453,235.4770,07/10.0/2023,2000,g 16.0,4.0
# From MPEC 2021-P47
P/2016 G1 (PANSTARRS),e,10.9712,204.0166,111.1484,2.583246,0.2373862,0.21050805,199.5070,07/10.0/2023,2000,g 14.0,4.0
# From MPEC 2017-D91
P/2016 J1-A (PANSTARRS),e,14.3297,199.8067,47.2816,3.175283,0.1741929,0.22766714,87.6868,07/10.0/2023,2000,g 16.5,4.0
# From MPEC 2017-A77
P/2016 J1-B (PANSTARRS),e,14.3325,199.8115,47.1735,3.174922,0.1742226,0.22751622,87.8391,07/10.0/2023,2000,g 17.0,4.0
# From MPEC 2022-ED3
C/2016 M1 (PANSTARRS),e,90.8325,92.2730,209.9286,18379,0.0000004,0.99987953,0.0000,08/10.3570/2018,2000,g  5.0,4.0
# From MPEC 2021-P47
C/2016 N6 (PANSTARRS),e,105.8724,298.8806,162.5699,936.3410,0.0000344,0.99715918,0.0000,07/17.2687/2018,2000,g  7.0,4.0
# From MPC102099
P/2016 P1 (PANSTARRS),e,24.3725,319.4003,270.7375,3.201673,0.1720437,0.28907965,130.4785,07/10.0/2023,2000,g 15.0,4.0
# From MPEC 2023-N01
C/2016 Q2 (PANSTARRS),h,05/12.4124/2021,109.3750,322.3186,84.5581,1.003182,7.081682,2000,6.0,4.0
# From MPEC 2023-J95
